CTC2_L_00350001-01
1 10000U 24385BB  26075.70045139  .00000000  00000+0  00000-0 0  9991
2 10000  95.0000   0.0000 0000000   0.0000   0.0000 13.42494874    14
CTC2_L_00350001-02
1 10001U 25093AO  26075.70045139  .00000000  00000+0  00000-0 0  9999
2 10001  95.0000   0.0000 0000000   0.0000  90.0000 13.42494874    14
CTC2_L_00350001-03
1 10002U 24927HH  26075.70045139  .00000000  00000+0  00000-0 0  9995
2 10002  95.0000   0.0000 0000000   0.0000 180.0000 13.42494874    15
CTC2_L_00350001-04
1 10003U 22843ST  26075.70045139  .00000000  00000+0  00000-0 0  9991
2 10003  95.0000   0.0000 0000000   0.0000 270.0000 13.42494874    16
CTC2_L_00350002-01
1 10004U 25013QH  26075.70045139  .00000000  00000+0  00000-0 0  9994
2 10004  95.0000  12.0000 0000000   0.0000  12.0000 13.42494874    14
CTC2_L_00350002-02
1 10005U 22532BB  26075.70045139  .00000000  00000+0  00000-0 0  9998
2 10005  95.0000  12.0000 0000000   0.0000 102.0000 13.42494874    15
CTC2_L_00350002-03
1 10006U 22521ZK  26075.70045139  .00000000  00000+0  00000-0 0  9997
2 10006  95.0000  12.0000 0000000   0.0000 192.0000 13.42494874    15
CTC2_L_00350002-04
1 10007U 22710GU  26075.70045139  .00000000  00000+0  00000-0 0  9998
2 10007  95.0000  12.0000 0000000   0.0000 282.0000 13.42494874    16
CTC2_L_00350003-01
1 10008U 24575HB  26075.70045139  .00000000  00000+0  00000-0 0  9990
2 10008  95.0000  24.0000 0000000   0.0000  24.0000 13.42494874    14
CTC2_L_00350003-02
1 10009U 26920NS  26075.70045139  .00000000  00000+0  00000-0 0  9997
2 10009  95.0000  24.0000 0000000   0.0000 114.0000 13.42494874    15
CTC2_L_00350003-03
1 10010U 23988HZ  26075.70045139  .00000000  00000+0  00000-0 0  9990
2 10010  95.0000  24.0000 0000000   0.0000 204.0000 13.42494874    17
CTC2_L_00350003-04
1 10011U 23437QS  26075.70045139  .00000000  00000+0  00000-0 0  9990
2 10011  95.0000  24.0000 0000000   0.0000 294.0000 13.42494874    17
CTC2_L_00350004-01
1 10012U 26471OV  26075.70045139  .00000000  00000+0  00000-0 0  9992
2 10012  95.0000  36.0000 0000000   0.0000  36.0000 13.42494874    15
CTC2_L_00350004-02
1 10013U 23751NM  26075.70045139  .00000000  00000+0  00000-0 0  9991
2 10013  95.0000  36.0000 0000000   0.0000 126.0000 13.42494874    16
CTC2_L_00350004-03
1 10014U 24576WV  26075.70045139  .00000000  00000+0  00000-0 0  9998
2 10014  95.0000  36.0000 0000000   0.0000 216.0000 13.42494874    17
CTC2_L_00350004-04
1 10015U 23986MY  26075.70045139  .00000000  00000+0  00000-0 0  9993
2 10015  95.0000  36.0000 0000000   0.0000 306.0000 13.42494874    18
CTC2_L_00350005-01
1 10016U 25375TS  26075.70045139  .00000000  00000+0  00000-0 0  9998
2 10016  95.0000  48.0000 0000000   0.0000  48.0000 13.42494874    15
CTC2_L_00350005-02
1 10017U 23592YF  26075.70045139  .00000000  00000+0  00000-0 0  9998
2 10017  95.0000  48.0000 0000000   0.0000 138.0000 13.42494874    16
CTC2_L_00350005-03
1 10018U 25135ET  26075.70045139  .00000000  00000+0  00000-0 0  9994
2 10018  95.0000  48.0000 0000000   0.0000 228.0000 13.42494874    17
CTC2_L_00350005-04
1 10019U 22536AD  26075.70045139  .00000000  00000+0  00000-0 0  9997
2 10019  95.0000  48.0000 0000000   0.0000 318.0000 13.42494874    18
CTC2_L_00350006-01
1 10020U 23780HL  26075.70045139  .00000000  00000+0  00000-0 0  9991
2 10020  95.0000  60.0000 0000000   0.0000  60.0000 13.42494874    18
CTC2_L_00350006-02
1 10021U 25993AB  26075.70045139  .00000000  00000+0  00000-0 0  9990
2 10021  95.0000  60.0000 0000000   0.0000 150.0000 13.42494874    19
CTC2_L_00350006-03
1 10022U 24133YT  26075.70045139  .00000000  00000+0  00000-0 0  9996
2 10022  95.0000  60.0000 0000000   0.0000 240.0000 13.42494874    10
CTC2_L_00350006-04
1 10023U 26470YW  26075.70045139  .00000000  00000+0  00000-0 0  9993
2 10023  95.0000  60.0000 0000000   0.0000 330.0000 13.42494874    11
CTC2_L_00350007-01
1 10024U 22111JQ  26075.70045139  .00000000  00000+0  00000-0 0  9992
2 10024  95.0000  72.0000 0000000   0.0000  72.0000 13.42494874    18
CTC2_L_00350007-02
1 10025U 24718HY  26075.70045139  .00000000  00000+0  00000-0 0  9998
2 10025  95.0000  72.0000 0000000   0.0000 162.0000 13.42494874    19
CTC2_L_00350007-03
1 10026U 22110QM  26075.70045139  .00000000  00000+0  00000-0 0  9993
2 10026  95.0000  72.0000 0000000   0.0000 252.0000 13.42494874    10
CTC2_L_00350007-04
1 10027U 24126YE  26075.70045139  .00000000  00000+0  00000-0 0  9993
2 10027  95.0000  72.0000 0000000   0.0000 342.0000 13.42494874    11
CTC2_L_00350008-01
1 10028U 26988LV  26075.70045139  .00000000  00000+0  00000-0 0  9992
2 10028  95.0000  84.0000 0000000   0.0000  84.0000 13.42494874    18
CTC2_L_00350008-02
1 10029U 24828AE  26075.70045139  .00000000  00000+0  00000-0 0  9994
2 10029  95.0000  84.0000 0000000   0.0000 174.0000 13.42494874    19
CTC2_L_00350008-03
1 10030U 24891SF  26075.70045139  .00000000  00000+0  00000-0 0  9996
2 10030  95.0000  84.0000 0000000   0.0000 264.0000 13.42494874    11
CTC2_L_00350008-04
1 10031U 23794BI  26075.70045139  .00000000  00000+0  00000-0 0  9998
2 10031  95.0000  84.0000 0000000   0.0000 354.0000 13.42494874    12
CTC2_L_00350009-01
1 10032U 22672IB  26075.70045139  .00000000  00000+0  00000-0 0  9993
2 10032  95.0000  96.0000 0000000   0.0000  96.0000 13.42494874    19
CTC2_L_00350009-02
1 10033U 26836LU  26075.70045139  .00000000  00000+0  00000-0 0  9990
2 10033  95.0000  96.0000 0000000   0.0000 186.0000 13.42494874    10
CTC2_L_00350009-03
1 10034U 25755JH  26075.70045139  .00000000  00000+0  00000-0 0  9990
2 10034  95.0000  96.0000 0000000   0.0000 276.0000 13.42494874    11
CTC2_L_00350009-04
1 10035U 24869BK  26075.70045139  .00000000  00000+0  00000-0 0  9996
2 10035  95.0000  96.0000 0000000   0.0000   6.0000 13.42494874    13
CTC2_L_00350010-01
1 10036U 23506TU  26075.70045139  .00000000  00000+0  00000-0 0  9994
2 10036  95.0000 108.0000 0000000   0.0000 108.0000 13.42494874    11
CTC2_L_00350010-02
1 10037U 24124NP  26075.70045139  .00000000  00000+0  00000-0 0  9992
2 10037  95.0000 108.0000 0000000   0.0000 198.0000 13.42494874    11
CTC2_L_00350010-03
1 10038U 22493CZ  26075.70045139  .00000000  00000+0  00000-0 0  9990
2 10038  95.0000 108.0000 0000000   0.0000 288.0000 13.42494874    12
CTC2_L_00350010-04
1 10039U 24501VJ  26075.70045139  .00000000  00000+0  00000-0 0  9993
2 10039  95.0000 108.0000 0000000   0.0000  18.0000 13.42494874    14
CTC2_L_00350011-01
1 10040U 26717EQ  26075.70045139  .00000000  00000+0  00000-0 0  9996
2 10040  95.0000 120.0000 0000000   0.0000 120.0000 13.42494874    14
CTC2_L_00350011-02
1 10041U 25173EX  26075.70045139  .00000000  00000+0  00000-0 0  9992
2 10041  95.0000 120.0000 0000000   0.0000 210.0000 13.42494874    15
CTC2_L_00350011-03
1 10042U 23654AA  26075.70045139  .00000000  00000+0  00000-0 0  9995
2 10042  95.0000 120.0000 0000000   0.0000 300.0000 13.42494874    16
CTC2_L_00350011-04
1 10043U 24131LV  26075.70045139  .00000000  00000+0  00000-0 0  9997
2 10043  95.0000 120.0000 0000000   0.0000  30.0000 13.42494874    17
CTC2_L_00350012-01
1 10044U 26043ML  26075.70045139  .00000000  00000+0  00000-0 0  9992
2 10044  95.0000 132.0000 0000000   0.0000 132.0000 13.42494874    14
CTC2_L_00350012-02
1 10045U 26641JJ  26075.70045139  .00000000  00000+0  00000-0 0  9997
2 10045  95.0000 132.0000 0000000   0.0000 222.0000 13.42494874    15
CTC2_L_00350012-03
1 10046U 26528HI  26075.70045139  .00000000  00000+0  00000-0 0  9992
2 10046  95.0000 132.0000 0000000   0.0000 312.0000 13.42494874    16
CTC2_L_00350012-04
1 10047U 22543GK  26075.70045139  .00000000  00000+0  00000-0 0  9996
2 10047  95.0000 132.0000 0000000   0.0000  42.0000 13.42494874    17
CTC2_L_00350013-01
1 10048U 24506SY  26075.70045139  .00000000  00000+0  00000-0 0  9998
2 10048  95.0000 144.0000 0000000   0.0000 144.0000 13.42494874    14
CTC2_L_00350013-02
1 10049U 25674WZ  26075.70045139  .00000000  00000+0  00000-0 0  9996
2 10049  95.0000 144.0000 0000000   0.0000 234.0000 13.42494874    15
CTC2_L_00350013-03
1 10050U 25969BY  26075.70045139  .00000000  00000+0  00000-0 0  9995
2 10050  95.0000 144.0000 0000000   0.0000 324.0000 13.42494874    17
CTC2_L_00350013-04
1 10051U 25968LQ  26075.70045139  .00000000  00000+0  00000-0 0  9995
2 10051  95.0000 144.0000 0000000   0.0000  54.0000 13.42494874    18
CTC2_L_00350014-01
1 10052U 26766UR  26075.70045139  .00000000  00000+0  00000-0 0  9993
2 10052  95.0000 156.0000 0000000   0.0000 156.0000 13.42494874    15
CTC2_L_00350014-02
1 10053U 23483FK  26075.70045139  .00000000  00000+0  00000-0 0  9997
2 10053  95.0000 156.0000 0000000   0.0000 246.0000 13.42494874    16
CTC2_L_00350014-03
1 10054U 26929UK  26075.70045139  .00000000  00000+0  00000-0 0  9996
2 10054  95.0000 156.0000 0000000   0.0000 336.0000 13.42494874    17
CTC2_L_00350014-04
1 10055U 26874HV  26075.70045139  .00000000  00000+0  00000-0 0  9996
2 10055  95.0000 156.0000 0000000   0.0000  66.0000 13.42494874    18
CTC2_L_00350015-01
1 10056U 22007FY  26075.70045139  .00000000  00000+0  00000-0 0  9991
2 10056  95.0000 168.0000 0000000   0.0000 168.0000 13.42494874    15
CTC2_L_00350015-02
1 10057U 23663UH  26075.70045139  .00000000  00000+0  00000-0 0  9991
2 10057  95.0000 168.0000 0000000   0.0000 258.0000 13.42494874    16
CTC2_L_00350015-03
1 10058U 22200GO  26075.70045139  .00000000  00000+0  00000-0 0  9998
2 10058  95.0000 168.0000 0000000   0.0000 348.0000 13.42494874    17
CTC2_L_00350015-04
1 10059U 25583VX  26075.70045139  .00000000  00000+0  00000-0 0  9996
2 10059  95.0000 168.0000 0000000   0.0000  78.0000 13.42494874    18
CTC2_L_00350016-01
1 10060U 22709D   26075.70045139  .00000000  00000+0  00000-0 0  9995
2 10060  95.0000 180.0000 0000000   0.0000 180.0000 13.42494874    18
CTC2_L_00350016-02
1 10061U 24422LD  26075.70045139  .00000000  00000+0  00000-0 0  9990
2 10061  95.0000 180.0000 0000000   0.0000 270.0000 13.42494874    19
